NORAD_CAT_ID,OBJECT_NAME,OBJECT_TYPE,EPOCH,MEAN_MOTION,ECCENTRICITY,INCLINATION,RA_OF_ASC_NODE,ARG_OF_PERICENTER,MEAN_ANOMALY,BSTAR,MEAN_MOTION_DOT,MEAN_MOTION_DDOT,TLE_LINE0,TLE_LINE1,TLE_LINE2,SEMIMAJOR_AXIS,PERIOD,APOGEE,PERIGEE,DECAYED
52367.0,STARLINK-3817,PAYLOAD,2022-08-01 06:00:00,15.18846253,0.0001644,53.2172,339.0236,50.6066,173.7313,-0.055107,-0.01063601,0.0,0 STARLINK-3817,1 52367U 22045AN  22213.25001157 -.01063601  00000-0 -55107-1 0  9995,2 52367  53.2172 339.0236 0001644  50.6066 173.7313 15.18846253 17173,6887.4630000000025,94.809,510.461,508.196,0.0
52367.0,STARLINK-3817,PAYLOAD,2022-08-01 14:00:01,15.18084775,0.0002016,53.2174,337.504,35.9956,211.4986,-0.056112,-0.01073113,0.0,0 STARLINK-3817,1 52367U 22045AN  22213.58334491 -.01073113  00000-0 -56112-1 0  9997,2 52367  53.2174 337.5040 0002016  35.9956 211.4986 15.18084775  1306,6889.766,94.856,513.02,510.242,0.0
52367.0,STARLINK-3817,PAYLOAD,2022-08-01 22:00:00,15.17329148,0.0001578,53.2172,335.9844,49.4126,220.3246,-0.057726,-0.01079542,0.0,0 STARLINK-3817,1 52367U 22045AN  22213.91667824 -.01079542  00000-0 -57726-1 0  9997,2 52367  53.2172 335.9844 0001578  49.4126 220.3246 15.17329148  1302,6892.054,94.904,515.006,512.831,0.0
52367.0,STARLINK-3817,PAYLOAD,2022-08-02 06:00:02,15.16566034,0.0001556,53.2172,334.465,48.5436,242.5907,-0.058687,-0.01074089,0.0,0 STARLINK-3817,1 52367U 22045AN  22214.25002315 -.01074089  00000-0 -58687-1 0  9991,2 52367  53.2172 334.4650 0001556  48.5436 242.5907 15.16566034 17337,6894.365,94.951,517.303,515.158,0.0
52367.0,STARLINK-3817,PAYLOAD,2022-08-02 14:00:01,15.15807195,0.0001747,53.2173,332.9508,40.2439,271.2446,-0.0599909999999999,-0.01074348,0.0,0 STARLINK-3817,1 52367U 22045AN  22214.58334491 -.01074348  00000-0 -59991-1 0  9997,2 52367  53.2173 332.9508 0001747  40.2439 271.2446 15.15807195  1309,6896.666,94.999,519.736,517.326,0.0
52367.0,STARLINK-3817,PAYLOAD,2022-08-03 06:00:00,15.14286577,0.0001579,53.2173,329.9225,43.0679,306.5222,-0.0625169999999999,-0.01072266,0.0,0 STARLINK-3817,1 52367U 22045AN  22215.25001157 -.01072266  00000-0 -62517-1 0  9997,2 52367  53.2173 329.9225 0001579  43.0679 306.5222 15.14286577 17485,6901.281999999997,95.094,524.237,522.058,0.0
52367.0,STARLINK-3817,PAYLOAD,2022-08-03 14:00:01,15.13529925,0.000186,53.2173,328.4135,34.6897,332.579,-0.064132,-0.01076391,0.0,0 STARLINK-3817,1 52367U 22045AN  22215.58334491 -.01076391  00000-0 -64132-1 0  9991,2 52367  53.2173 328.4135 0001860  34.6897 332.5790 15.13529925  1309,6903.581999999999,95.142,526.731,524.163,0.0
52367.0,STARLINK-3817,PAYLOAD,2022-08-03 22:00:01,15.12771122,0.0001655,53.2172,326.9042,39.9286,344.1716,-0.065618,-0.01077874,0.0,0 STARLINK-3817,1 52367U 22045AN  22215.91668981 -.01077874  00000-0 -65618-1 0  9999,2 52367  53.2172 326.9042 0001655  39.9286 344.1716 15.12771122  1304,6905.891,95.19,528.898,526.613,0.0
52367.0,STARLINK-3817,PAYLOAD,2022-08-04 06:00:00,15.12008136,0.0001699,53.2172,325.3957,39.9514,359.9433,-0.066652,-0.0107212,0.0,0 STARLINK-3817,1 52367U 22045AN  22216.25001157 -.01072120  00000-0 -66652-1 0  9991,2 52367  53.2172 325.3957 0001699  39.9514 359.9433 15.12008136 17635,6908.214,95.238,531.252,528.905,0.0
52367.0,STARLINK-3817,PAYLOAD,2022-08-04 14:00:01,15.11251914,0.0001988,53.2173,323.8922,33.3936,21.4416,-0.068425,-0.01077267,0.0,0 STARLINK-3817,1 52367U 22045AN  22216.58334491 -.01077267  00000-0 -68425-1 0  9994,2 52367  53.2173 323.8922 0001988  33.3936  21.4416 15.11251914  1300,6910.518,95.285,533.757,531.009,0.0
52367.0,STARLINK-3817,PAYLOAD,2022-08-04 22:00:00,15.10491578,0.0001892,53.2172,322.3881,36.2646,32.6017,-0.069798,-0.01075953,0.0,0 STARLINK-3817,1 52367U 22045AN  22216.91667824 -.01075953  00000-0 -69798-1 0  9994,2 52367  53.2172 322.3881 0001892  36.2646  32.6017 15.10491578  1303,6912.837,95.333,536.01,533.394,0.0
52367.0,STARLINK-3817,PAYLOAD,2022-08-05 06:00:02,15.09626056,0.0001968,53.2173,320.8857,41.1262,40.9406,-0.051766,-0.00787645,0.0,0 STARLINK-3817,1 52367U 22045AN  22217.25002315 -.00787645  00000-0 -51766-1 0  9993,2 52367  53.2173 320.8857 0001968  41.1262  40.9406 15.09626056 17785,6915.479,95.388,538.705,535.9830000000002,0.0
52367.0,STARLINK-3817,PAYLOAD,2022-08-05 14:00:01,15.08961275,0.0002369,53.2174,319.3891,32.152,62.1249,-0.012365,-0.00192517,0.0,0 STARLINK-3817,1 52367U 22045AN  22217.58335648 -.00192517  00000-0 -12365-1 0  9997,2 52367  53.2174 319.3891 0002369  32.1520  62.1249 15.08961275  1306,6917.51,95.43,541.013,537.736,0.0
52367.0,STARLINK-3817,PAYLOAD,2022-08-05 22:00:00,15.08885307,0.0001789,53.2164,317.8974,48.7868,57.0673,-0.0058123,-0.0009173,0.0,0 STARLINK-3817,1 52367U 22045AN  22217.91667824 -.00091730  00000-0 -58123-2 0  9996,2 52367  53.2164 317.8974 0001789  48.7868  57.0673 15.08885307 17888,6917.7419999999975,95.435,540.844,538.369,0.0
52367.0,STARLINK-3817,PAYLOAD,2022-08-06 06:00:00,15.08838303,0.0001716,53.216,316.4051,55.2914,62.183,0.0017635,0.00027888,0.0,0 STARLINK-3817,1 52367U 22045AN  22218.25001157  .00027888  00000-0  17635-2 0  9999,2 52367  53.2160 316.4051 0001716  55.2914  62.1830 15.08838303 17932,6917.886,95.438,540.938,538.563,0.0
52367.0,STARLINK-3817,PAYLOAD,2022-08-06 13:26:02,15.09905505,0.0001588999999999,53.2161,315.0187,80.8319,279.2853,-0.011929,-0.00190658,0.0,0 STARLINK-3817,1 52367U 22045AN  22218.55975218 -.00190658  00000-0 -11929-1 0  9997,2 52367  53.2161 315.0187 0001589  80.8319 279.2853 15.09905505 17980,6914.625,95.37,537.589,535.3919999999998,0.0
52367.0,STARLINK-3817,PAYLOAD,2022-08-06 22:00:00,15.08844397,0.0001701,53.2157,313.4132,47.0002,93.6813,-0.0018868,-0.00030195,0.0,0 STARLINK-3817,1 52367U 22045AN  22218.91667824 -.00030195  00000-0 -18868-2 0  9997,2 52367  53.2157 313.4132 0001701  47.0002  93.6813 15.08844397  1300,6917.8669999999975,95.437,540.909,538.555,0.0
52367.0,STARLINK-3817,PAYLOAD,2022-08-07 05:19:39,15.09420945,0.0001825,53.2164,312.0443,43.3162,316.7974,-0.0071011,-0.00113321,0.0,0 STARLINK-3817,1 52367U 22045AN  22219.22198075 -.00113321  00000-0 -71011-2 0  9991,2 52367  53.2164 312.0443 0001825  43.3162 316.7974 15.09420945 18081,6916.105,95.401,539.232,536.7080000000002,0.0
52367.0,STARLINK-3817,PAYLOAD,2022-08-07 11:41:14,15.09010277,0.000129,53.2165,310.8531,45.4395,314.6703,-0.0021219,-0.00034056,0.0,0 STARLINK-3817,1 52367U 22045AN  22219.48697529 -.00034056  00000-0 -21219-2 0  9999,2 52367  53.2165 310.8531 0001290  45.4395 314.6703 15.09010277 18128,6917.36,95.427,540.117,538.3330000000002,0.0
52367.0,STARLINK-3817,PAYLOAD,2022-08-07 22:00:00,15.08861851,0.000167,53.2155,308.9238,47.62600000000001,127.8274,-0.0016819,-0.00026972,0.0,0 STARLINK-3817,1 52367U 22045AN  22219.91667824 -.00026972  00000-0 -16819-2 0  9990,2 52367  53.2155 308.9238 0001670  47.6260 127.8274 15.08861851  1306,6917.814,95.436,540.8340000000002,538.523,0.0
52367.0,STARLINK-3817,PAYLOAD,2022-08-08 05:10:28,15.08858439,0.0001551,53.216,307.5799,70.2148,289.9011,-0.00013446,-2.428e-05,0.0,0 STARLINK-3817,1 52367U 22045AN  22220.21561042 -.00002428  00000-0 -13446-3 0  9994,2 52367  53.2160 307.5799 0001551  70.2148 289.9011 15.08858439 18231,6917.824000000001,95.436,540.762,538.616,0.0
52367.0,STARLINK-3817,PAYLOAD,2022-08-08 14:00:01,15.0884225,0.0001716,53.2155,305.932,44.8698,153.8937,0.00035103,5.303e-05,0.0,0 STARLINK-3817,1 52367U 22045AN  22220.58335648  .00005303  00000-0  35103-3 0  9992,2 52367  53.2155 305.9320 0001716  44.8698 153.8937 15.08842250  1307,6917.874,95.437,540.9259999999998,538.5509999999998,0.0
52367.0,STARLINK-3817,PAYLOAD,2022-08-08 22:00:00,15.08872654,0.0001636,53.2152,304.4345,46.6564,163.6513,-0.0039705,-0.00062983,0.0,0 STARLINK-3817,1 52367U 22045AN  22220.91667824 -.00062983  00000-0 -39705-2 0  9993,2 52367  53.2152 304.4345 0001636  46.6564 163.6513 15.08872654  1308,6917.781,95.435,540.7769999999998,538.514,0.0
52367.0,STARLINK-3817,PAYLOAD,2022-08-09 06:00:00,15.08842831,0.0001593,53.2153,302.9377,53.7757,168.1254,-0.00025277,-4.309e-05,0.0,0 STARLINK-3817,1 52367U 22045AN  22221.25001157 -.00004309  00000-0 -25277-3 0  9990,2 52367  53.2153 302.9377 0001593  53.7757 168.1254 15.08842831 18384,6917.871999999999,95.437,540.839,538.635,0.0
52367.0,STARLINK-3817,PAYLOAD,2022-08-09 14:00:01,15.08815541,0.0001761999999999,53.2151,301.4431,45.6885,187.8107,-0.0012655,-0.00020359,0.0,0 STARLINK-3817,1 52367U 22045AN  22221.58334491 -.00020359  00000-0 -12655-2 0  9994,2 52367  53.2151 301.4431 0001762  45.6885 187.8107 15.08815541  1304,6917.955,95.439,541.039,538.601,0.0
52367.0,STARLINK-3817,PAYLOAD,2022-08-09 22:00:00,15.08810242,0.0001682,53.2149,299.9455,47.528,197.5356,-0.0019241,-0.00030755,0.0,0 STARLINK-3817,1 52367U 22045AN  22221.91667824 -.00030755  00000-0 -19241-2 0  9999,2 52367  53.2149 299.9455 0001682  47.5280 197.5356 15.08810242 18483,6917.971,95.439,541.0,538.673,0.0
52367.0,STARLINK-3817,PAYLOAD,2022-08-10 14:00:01,15.0878633,0.0001869,53.2148,296.9543,46.4652,221.6913,0.0020245999999999,0.00032033,0.0,0 STARLINK-3817,1 52367U 22045AN  22222.58334491  .00032033  00000-0  20246-2 0  9990,2 52367  53.2148 296.9543 0001869  46.4652 221.6913 15.08786330  1306,6918.044,95.441,541.202,538.616,0.0
52367.0,STARLINK-3817,PAYLOAD,2022-08-10 17:07:18,15.08794855,0.000184,53.2145,296.3703,44.5797,210.4549,0.0018707,0.00029573,0.0,0 STARLINK-3817,1 52367U 22045AN  22222.71341435  .00029573  00000-0  18707-2 0  9995,2 52367  53.2145 296.3703 0001840  44.5797 210.4549 15.08794855 18606,6918.018,95.44,541.156,538.61,0.0
52367.0,STARLINK-3817,PAYLOAD,2022-08-10 22:00:00,15.08819056,0.0001748,53.2147,295.4566,47.5318,232.1695,-0.0012374,-0.00019916,0.0,0 STARLINK-3817,1 52367U 22045AN  22222.91667824 -.00019916  00000-0 -12374-2 0  9996,2 52367  53.2147 295.4566 0001748  47.5318 232.1695 15.08819056  1307,6917.944,95.439,541.019,538.6,0.0
